#aV2006 11  9  0  0   .00000000      96 DD+AD WGS84 FIT  NGA
## 1400 345600.00000000   900.00000000 54048  .0000000000000
+   30     1  2  3  4  5  6  7  8  9 10 11 13 14 15 16 17 18
+         19 20 21 22 23 24 25 26 27 28 29 30 31  0  0  0  0
+          0  0  0  0  0  0  0  0  0  0  0  0  0  0  0  0  0
+          0  0  0  0  0  0  0  0  0  0  0  0  0  0  0  0  0
+          0  0  0  0  0  0  0  0  0  0  0  0  0  0  0  0  0
++         0  0  0  0  0  0  0  0  0  0  0  0  0  0  0  0  0
++         0  0  0  0  0  0  0  0  0  0  0  0  0  0  0  0  0
++         0  0  0  0  0  0  0  0  0  0  0  0  0  0  0  0  0
++         0  0  0  0  0  0  0  0  0  0  0  0  0  0  0  0  0
++         0  0  0  0  0  0  0  0  0  0  0  0  0  0  0  0  0
%c cc cc ccc ccc cccc cccc cccc cccc ccccc ccccc ccccc ccccc
%c cc cc ccc ccc cccc cccc cccc cccc ccccc ccccc ccccc ccccc
%f  0.0000000  0.000000000  0.00000000000  0.000000000000000
%f  0.0000000  0.000000000  0.00000000000  0.000000000000000
%i    0    0    0    0      0      0      0      0         0
%i    0    0    0    0      0      0      0      0         0
/*      NGA, ST. LOUIS,MO.                                  
/*   EPHEMERIS COMPUTED FROM  3 DAYS OF DATA                
/* CCCCCCCCCCCCCCCCCCCCCCCCCCCCCCCCCCCCCCCCCCCCCCCCCCCCCCCCC
/* CCCCCCCCCCCCCCCCCCCCCCCCCCCCCCCCCCCCCCCCCCCCCCCCCCCCCCCCC
*  2006 11  9  3 45   .00000000                                                 
P  1 -13666.147072  11641.880988 -19346.741057     87.802960                    
V  1    942.643765 -24960.967420 -15585.950776       .023419                    
P  2  23168.154257 -12707.245160    305.063177     52.857249                    
V  2   2210.042270   2688.451554 -31637.819736       .036526                    
P  3 -12027.441254  15862.028462  17238.169383    380.800833                    
V  3  -3846.767240 -22310.186597  17974.259607       .331724                    
P  4  24018.567004  -3169.444651 -11341.364068    334.238090                    
V  4 -11534.798599   8681.959696 -26611.463890       .044012                    
P  5  -3124.912472 -17833.990250 -19710.219692    362.463964                    
V  5  22460.939169  10043.347801 -12640.720597      -.030792                    
P  6  -8046.658482 -22920.959179  10859.563054    556.933909                    
V  6   3157.873238 -13590.135323 -26865.361448      -.125703                    
P  7 -15669.063042  -5565.173085  21034.651375    499.177180                    
V  7    122.324157 -26056.700823  -7001.042875      -.073133                    
P  8  19177.273818   4289.647111  17934.281422    -85.633299                    
V  8 -20112.466768  10901.938023  18336.108975      -.010461                    
P  9   9744.364467 -18866.024353 -16376.829074     43.835647                    
V  9  18047.906274  -8413.373732  21421.579912       .016568                    
P 10  15288.267173  -6800.479391  20604.761746     92.525463                    
V 10  21574.479271  15008.693551 -10697.208710       .006082                    
P 11  -5510.997618  20317.129285 -16123.472940    359.039772                    
V 11 -18417.533623   9901.550036  19148.703060       .016335                    
P 13   6879.067573  22243.943470  12729.848706    111.021088                    
V 13  -2490.994380  16115.381102 -26586.458922       .035779                    
P 14 -13972.580978  -6292.305103 -21625.361724     -1.499018                    
V 14   1771.056180 -27504.766268   6762.566703       .009670                    
P 15 -20358.320156  -3934.434191  16705.890808     71.897290                    
V 15  18820.313833 -10144.885329  19954.024044       .442285                    
P 16 -18130.873227   4178.186531  19075.213184     89.996618                    
V 16 -19547.333559 -14009.194000 -15455.738232       .036841                    
P 17  14617.629409   6525.872484 -21217.452775     90.232424                    
V 17  -1594.230923  26869.039993   7060.362766      -.011762                    
P 18 -18857.521418 -18023.974972   5974.986790   -252.283214                    
V 18   7531.498711   2024.208321  30221.253852      -.005603                    
P 19  -8682.967824  23387.489331   9092.448299     32.409095                    
V 19  -1573.766136 -11642.393004  28837.383338       .038352                    
P 20   6212.546326  18657.459928 -17955.824114    -21.850688                    
V 20 -20185.108298 -10365.182946 -17807.299726       .000781                    
P 21 -13984.978677  -9805.551641  20548.152715     60.626942                    
V 21  22877.055978 -12032.038679   9322.738025       .015177                    
P 22 -23384.245476 -10881.165081  -6230.201250    148.004510                    
V 22  -4988.596133  -7057.329312  30230.635419       .027996                    
P 23    345.003459  26385.823657   1801.801114    140.079110                    
V 23  -2777.628426   2306.311091 -31969.749960       .007052                    
P 24  24958.954271  -8653.095882  -3930.201815     50.876941                    
V 24  -3600.848482   4563.894110 -30980.388298       .030813                    
P 25 -23637.950055  10352.484698  -6217.048988    402.219039                    
V 25   5467.981710  -6934.437946 -30234.011180       .059001                    
P 26   7791.949644 -23006.266936   9618.664744   -328.119408                    
V 26   1349.821221  13071.142661  29505.800152      -.161930                    
P 27  10859.169832  11393.152021  22039.143033     77.075788                    
V 27 -22492.302868  14005.976203   3659.972698       .019851                    
P 28  23071.153828  13335.429004  -2066.904937     14.702942                    
V 28   1089.996652   3746.057673  31374.202639      -.009157                    
P 29   9939.196882 -20122.285210  14175.487768    179.944860                    
V 29   1125.180383  17729.570469  25079.429671       .296802                    
P 30 -14859.959292 -18643.732052 -12126.669686     15.833076                    
V 30  14232.184643   5182.334720 -25949.364421       .011272                    
P 31 -24391.641099   6974.416751  -7739.011690    -49.509673                    
V 31   7604.353123  -7132.663557 -29624.891867       .106070                    
EOF
